{"type": "FeatureCollection", "features": [ {"type": "Feature", "properties": {"norad_id": 57401, "name": "TIANMU-1 09", "group": "weather", "lat": 62.37443936957504, "lon": -125.06603106764385, "alt_km": 472.15916465434566, "timestamp": "2025-12-17T17:50:18.895490+00:00", "meta": {"OBJECT_NAME": "TIANMU-1 09", "OBJECT_ID": "2023-101C", "EPOCH": "2025-12-17T07:54:04.167360", "MEAN_MOTION": 15.28152367, "ECCENTRICITY": 0.00066434, "INCLINATION": 97.2822, "RA_OF_ASC_NODE": 40.3864, "ARG_OF_PERICENTER": 71.3478, "MEAN_ANOMALY": 288.8483, "EPHEMERIS_TYPE": 0, "CLASSIFICATION_TYPE": "U", "NORAD_CAT_ID": 57401, "ELEMENT_SET_NO": 999, "REV_AT_EPOCH": 13385, "BSTAR": 0.00021908926, "MEAN_MOTION_DOT": 5.943e-05, "MEAN_MOTION_DDOT": 0}, "tle": {"line1": "1 57401U 23101C   25351.32921490  .00005943  00000+0  21909-3 0  9994", "line2": "2 57401  97.2822  40.3864 0006643  71.3478 288.8483 15.28152367133854"}}, "geometry": {"type": "Point", "coordinates": [-125.06603106764385, 62.37443936957504]}}, {"type": "Feature", "properties": {"norad_id": 57402, "name": "TIANMU-1 10", "group": "weather", "lat": -70.36335871963097, "lon": 62.6726010053929, "alt_km": 493.0964911871033, "timestamp": "2025-12-17T17:50:18.895501+00:00", "meta": {"OBJECT_NAME": "TIANMU-1 10", "OBJECT_ID": "2023-101D", "EPOCH": "2025-12-17T07:09:04.804128", "MEAN_MOTION": 15.28143308, "ECCENTRICITY": 0.00083936, "INCLINATION": 97.2903, "RA_OF_ASC_NODE": 41.2105, "ARG_OF_PERICENTER": 70.3707, "MEAN_ANOMALY": 289.8438, "EPHEMERIS_TYPE": 0, "CLASSIFICATION_TYPE": "U", "NORAD_CAT_ID": 57402, "ELEMENT_SET_NO": 999, "REV_AT_EPOCH": 13384, "BSTAR": 0.00022865051, "MEAN_MOTION_DOT": 6.206e-05, "MEAN_MOTION_DDOT": 0}, "tle": {"line1": "1 57402U 23101D   25351.29797227  .00006206  00000+0  22865-3 0  9995", "line2": "2 57402  97.2903  41.2105 0008393  70.3707 289.8438 15.28143308133846"}}, "geometry": {"type": "Point", "coordinates": [62.6726010053929, -70.36335871963097]}}, {"type": "Feature", "properties": {"norad_id": 57490, "name": "FENGYUN 3F", "group": "weather", "lat": 41.342160254560895, "lon": 52.206263682963886, "alt_km": 822.1408202964167, "timestamp": "2025-12-17T17:50:18.895511+00:00", "meta": {"OBJECT_NAME": "FENGYUN 3F", "OBJECT_ID": "2023-111A", "EPOCH": "2025-12-17T07:29:39.992352", "MEAN_MOTION": 14.19894738, "ECCENTRICITY": 7.127e-05, "INCLINATION": 98.7079, "RA_OF_ASC_NODE": 59.5318, "ARG_OF_PERICENTER": 109.2248, "MEAN_ANOMALY": 250.9005, "EPHEMERIS_TYPE": 0, "CLASSIFICATION_TYPE": "U", "NORAD_CAT_ID": 57490, "ELEMENT_SET_NO": 999, "REV_AT_EPOCH": 12305, "BSTAR": 4.9040196e-05, "MEAN_MOTION_DOT": 6e-07, "MEAN_MOTION_DDOT": 0}, "tle": {"line1": "1 57490U 23111A   25351.31226843  .00000060  00000+0  49040-4 0  9994", "line2": "2 57490  98.7079  59.5318 0000712 109.2248 250.9005 14.19894738123050"}}, "geometry": {"type": "Point", "coordinates": [52.206263682963886, 41.342160254560895]}}, {"type": "Feature", "properties": {"norad_id": 58584, "name": "ARKTIKA-M 2", "group": "weather", "lat": 23.7855369332336, "lon": -18.529827862983016, "alt_km": 13400.61987831824, "timestamp": "2025-12-17T17:50:18.895524+00:00", "meta": {"OBJECT_NAME": "ARKTIKA-M 2", "OBJECT_ID": "2023-198A", "EPOCH": "2025-12-15T07:41:54.278304", "MEAN_MOTION": 2.00603484, "ECCENTRICITY": 0.68650912, "INCLINATION": 63.2249, "RA_OF_ASC_NODE": 174.6089, "ARG_OF_PERICENTER": 268.096, "MEAN_ANOMALY": 18.8351, "EPHEMERIS_TYPE": 0, "CLASSIFICATION_TYPE": "U", "NORAD_CAT_ID": 58584, "ELEMENT_SET_NO": 999, "REV_AT_EPOCH": 1463, "BSTAR": 0, "MEAN_MOTION_DOT": 2.02e-06, "MEAN_MOTION_DDOT": 0}, "tle": {"line1": "1 58584U 23198A   25349.32076711  .00000202  00000+0  00000+0 0  9995", "line2": "2 58584  63.2249 174.6089 6865091 268.0960  18.8351  2.00603484 14636"}}, "geometry": {"type": "Point", "coordinates": [-18.529827862983016, 23.7855369332336]}}, {"type": "Feature", "properties": {"norad_id": 58645, "name": "TIANMU-1 11", "group": "weather", "lat": 44.41716742409765, "lon": 4.002529008844309, "alt_km": 490.33886263087516, "timestamp": "2025-12-17T17:50:18.895536+00:00", "meta": {"OBJECT_NAME": "TIANMU-1 11", "OBJECT_ID": "2023-205A", "EPOCH": "2025-12-17T08:11:29.595264", "MEAN_MOTION": 15.24655978, "ECCENTRICITY": 0.00076407, "INCLINATION": 97.3602, "RA_OF_ASC_NODE": 10.8841, "ARG_OF_PERICENTER": 291.108, "MEAN_ANOMALY": 68.934, "EPHEMERIS_TYPE": 0, "CLASSIFICATION_TYPE": "U", "NORAD_CAT_ID": 58645, "ELEMENT_SET_NO": 999, "REV_AT_EPOCH": 10979, "BSTAR": 0.00021753045, "MEAN_MOTION_DOT": 5.305e-05, "MEAN_MOTION_DDOT": 0}, "tle": {"line1": "1 58645U 23205A   25351.34131476  .00005305  00000+0  21753-3 0  9998", "line2": "2 58645  97.3602  10.8841 0007640 291.1080  68.9340 15.24655978109795"}}, "geometry": {"type": "Point", "coordinates": [4.002529008844309, 44.41716742409765]}}, {"type": "Feature", "properties": {"norad_id": 58646, "name": "TIANMU-1 12", "group": "weather", "lat": -73.35128941528423, "lon": 165.47698833220392, "alt_km": 495.642464599151, "timestamp": "2025-12-17T17:50:18.895547+00:00", "meta": {"OBJECT_NAME": "TIANMU-1 12", "OBJECT_ID": "2023-205B", "EPOCH": "2025-12-17T05:41:46.353120", "MEAN_MOTION": 15.24539191, "ECCENTRICITY": 0.00057659, "INCLINATION": 97.3589, "RA_OF_ASC_NODE": 10.586, "ARG_OF_PERICENTER": 270.8569, "MEAN_ANOMALY": 89.2008, "EPHEMERIS_TYPE": 0, "CLASSIFICATION_TYPE": "U", "NORAD_CAT_ID": 58646, "ELEMENT_SET_NO": 999, "REV_AT_EPOCH": 10976, "BSTAR": 0.0002061028, "MEAN_MOTION_DOT": 5.003e-05, "MEAN_MOTION_DDOT": 0}, "tle": {"line1": "1 58646U 23205B   25351.23734205  .00005003  00000+0  20610-3 0  9992", "line2": "2 58646  97.3589  10.5860 0005765 270.8569  89.2008 15.24539191109762"}}, "geometry": {"type": "Point", "coordinates": [165.47698833220392, -73.35128941528423]}}, {"type": "Feature", "properties": {"norad_id": 58647, "name": "TIANMU-1 13", "group": "weather", "lat": 70.3490625922657, "lon": -9.941414434523857, "alt_km": 489.4220635659367, "timestamp": "2025-12-17T17:50:18.895557+00:00", "meta": {"OBJECT_NAME": "TIANMU-1 13", "OBJECT_ID": "2023-205C", "EPOCH": "2025-12-17T08:04:24.695616", "MEAN_MOTION": 15.24583314, "ECCENTRICITY": 0.00061356, "INCLINATION": 97.3618, "RA_OF_ASC_NODE": 10.8861, "ARG_OF_PERICENTER": 246.226, "MEAN_ANOMALY": 113.8334, "EPHEMERIS_TYPE": 0, "CLASSIFICATION_TYPE": "U", "NORAD_CAT_ID": 58647, "ELEMENT_SET_NO": 999, "REV_AT_EPOCH": 10977, "BSTAR": 0.00022551543, "MEAN_MOTION_DOT": 5.489e-05, "MEAN_MOTION_DDOT": 0}, "tle": {"line1": "1 58647U 23205C   25351.33639694  .00005489  00000+0  22552-3 0  9995", "line2": "2 58647  97.3618  10.8861 0006135 246.2260 113.8334 15.24583314109770"}}, "geometry": {"type": "Point", "coordinates": [-9.941414434523857, 70.3490625922657]}}, {"type": "Feature", "properties": {"norad_id": 58648, "name": "TIANMU-1 14", "group": "weather", "lat": 17.296121127333848, "lon": -167.06476488337884, "alt_km": 492.54353123637156, "timestamp": "2025-12-17T17:50:18.895570+00:00", "meta": {"OBJECT_NAME": "TIANMU-1 14", "OBJECT_ID": "2023-205D", "EPOCH": "2025-12-17T07:40:34.683168", "MEAN_MOTION": 15.24566708, "ECCENTRICITY": 0.00069053, "INCLINATION": 97.3549, "RA_OF_ASC_NODE": 10.2144, "ARG_OF_PERICENTER": 252.5096, "MEAN_ANOMALY": 107.5387, "EPHEMERIS_TYPE": 0, "CLASSIFICATION_TYPE": "U", "NORAD_CAT_ID": 58648, "ELEMENT_SET_NO": 999, "REV_AT_EPOCH": 10977, "BSTAR": 0.00021177011, "MEAN_MOTION_DOT": 5.148e-05, "MEAN_MOTION_DDOT": 0}, "tle": {"line1": "1 58648U 23205D   25351.31984587  .00005148  00000+0  21177-3 0  9992", "line2": "2 58648  97.3549  10.2144 0006905 252.5096 107.5387 15.24566708109770"}}, "geometry": {"type": "Point", "coordinates": [-167.06476488337884, 17.296121127333848]}}, {"type": "Feature", "properties": {"norad_id": 58660, "name": "TIANMU-1 19", "group": "weather", "lat": 61.25395564292573, "lon": -63.44900158516564, "alt_km": 477.20390133018736, "timestamp": "2025-12-17T17:50:18.895581+00:00", "meta": {"OBJECT_NAME": "TIANMU-1 19", "OBJECT_ID": "2023-208A", "EPOCH": "2025-12-17T06:19:19.882848", "MEAN_MOTION": 15.27933844, "ECCENTRICITY": 0.00042942, "INCLINATION": 97.439, "RA_OF_ASC_NODE": 102.2916, "ARG_OF_PERICENTER": 232.7038, "MEAN_ANOMALY": 127.3811, "EPHEMERIS_TYPE": 0, "CLASSIFICATION_TYPE": "U", "NORAD_CAT_ID": 58660, "ELEMENT_SET_NO": 999, "REV_AT_EPOCH": 10951, "BSTAR": 0.00031273759, "MEAN_MOTION_DOT": 8.454e-05, "MEAN_MOTION_DDOT": 0}, "tle": {"line1": "1 58660U 23208A   25351.26342457  .00008454  00000+0  31274-3 0  9999", "line2": "2 58660  97.4390 102.2916 0004294 232.7038 127.3811 15.27933844109519"}}, "geometry": {"type": "Point", "coordinates": [-63.44900158516564, 61.25395564292573]}}, {"type": "Feature", "properties": {"norad_id": 58661, "name": "TIANMU-1 20", "group": "weather", "lat": -33.23437394014196, "lon": -81.68405140360187, "alt_km": 480.88905072754187, "timestamp": "2025-12-17T17:50:18.895591+00:00", "meta": {"OBJECT_NAME": "TIANMU-1 20", "OBJECT_ID": "2023-208B", "EPOCH": "2025-12-17T07:29:03.464160", "MEAN_MOTION": 15.29124754, "ECCENTRICITY": 0.00064283, "INCLINATION": 97.4327, "RA_OF_ASC_NODE": 102.7921, "ARG_OF_PERICENTER": 246.5166, "MEAN_ANOMALY": 113.5398, "EPHEMERIS_TYPE": 0, "CLASSIFICATION_TYPE": "U", "NORAD_CAT_ID": 58661, "ELEMENT_SET_NO": 999, "REV_AT_EPOCH": 10959, "BSTAR": 0.00028170537, "MEAN_MOTION_DOT": 7.893e-05, "MEAN_MOTION_DDOT": 0}, "tle": {"line1": "1 58661U 23208B   25351.31184565  .00007893  00000+0  28171-3 0  9998", "line2": "2 58661  97.4327 102.7921 0006428 246.5166 113.5398 15.29124754109596"}}, "geometry": {"type": "Point", "coordinates": [-81.68405140360187, -33.23437394014196]}}]}